{
  "norad_id": 66279,
  "name": "STARLINK-35724",
  "history": [
    {
      "epoch": "2026-03-28T11:01:06.234816Z",
      "apogee_km": 475.98987320172546,
      "perigee_km": 474.41497580197483,
      "latitude_deg": 7.034344011426153e-06,
      "longitude_deg": 113.36808153704128,
      "height_km": 476.0356838013019,
      "semi_major_axis_km": 6853.33942450185,
      "eccentricity": 0.0001149,
      "inclination_deg": 53.1592,
      "raan_deg": 104.5233,
      "arg_perigee_deg": 85.2723,
      "mean_anomaly_deg": 274.8409,
      "mean_motion_rev_day": 15.30204235
    },
    {
      "epoch": "2026-03-29T04:15:41.413824Z",
      "apogee_km": 475.851870842208,
      "perigee_km": 474.44968816252094,
      "latitude_deg": -6.536595119134643e-05,
      "longitude_deg": -149.32350089795514,
      "height_km": 476.0831143235195,
      "semi_major_axis_km": 6853.287779502364,
      "eccentricity": 0.0001023,
      "inclination_deg": 53.1588,
      "raan_deg": 101.1865,
      "arg_perigee_deg": 92.7826,
      "mean_anomaly_deg": 267.3291,
      "mean_motion_rev_day": 15.30221532
    }
  ]
}